SIRION PATHFINDER-2     
1 43759U 18099B   26182.12164041  .00004997  00000+0  27348-3 0  9998
2 43759  97.4243 230.8482 0007224 245.5732 114.4747 15.14668888414731
CORVUS BC4              
1 43767U 18099K   26182.08100218  .00005142  00000+0  29796-3 0  9990
2 43767  97.4054 224.6547 0006931 321.1884  38.8848 15.12603535414508
M2 PATHFINDER           
1 45727U 20037E   26182.07836602  .00003498  00000+0  25236-3 0  9992
2 45727  97.8142  13.4655 0012763 105.3996 254.8641 15.04738191327588
NETSAT-4                
1 46504U 20068U   26181.99314963  .00020676  00000+0  45016-3 0  9996
2 46504  97.8597 191.3470 0003299 259.8580 100.2295 15.44320928317908
NETSAT-3                
1 46505U 20068V   26182.00993756  .00021359  00000+0  48354-3 0  9990
2 46505  97.8648 189.5644 0002899 289.5565  70.5368 15.43153659317810
NETSAT-1                
1 46506U 20068W   26181.95723706  .00014259  00000+0  42281-3 0  9994
2 46506  97.8741 183.6749 0003272 343.6913  16.4223 15.34952511317410
NETSAT-2                
1 46507U 20068X   26182.01358006  .00028638  00000+0  57595-3 0  9990
2 46507  97.8606 191.3154 0001530 321.4656  38.6483 15.46589949317878
GREENCUBE (IO-117)      
1 53109U 22080E   26181.72466670 -.00000003  00000+0  00000+0 0  9998
2 53109  70.1437 293.5372 0008958 286.6703  73.2973  6.42583253 92937
SITRO-AIS 5 (KATYS)     
1 57176U 23091L   26182.13494815  .00016686  00000+0  57934-3 0  9992
2 57176  97.5055 246.1690 0012071  59.8090 300.4344 15.29776351166477
SITRO-AIS 6 (CHIRKIN)   
1 57192U 23091AC  26182.14628970  .00013599  00000+0  52697-3 0  9993
2 57192  97.5062 245.2250 0012526  63.0388 297.2128 15.26201305166413
SITRO-AIS 8 (ANOKHIN)   
1 57193U 23091AD  26182.19264904  .00020018  00000+0  63799-3 0  9991
2 57193  97.5051 247.8735 0010926  55.8591 304.3686 15.32516475166597
SITRO-AIS 7 (FARTUSHNIY)
1 57194U 23091AE  26182.15231708  .00012034  00000+0  47121-3 0  9994
2 57194  97.5059 245.0487 0012466  64.0574 296.1947 15.25882468166402
SITRO-AIS 10 (BURDAEV)  
1 57199U 23091AK  26182.16466581  .00029038  00000+0  74851-3 0  9991
2 57199  97.5077 253.0452 0006293  35.5279 324.6384 15.39135854166917
SITRO-AIS 9 (SHCHUKIN)  
1 57201U 23091AM  26182.19557247  .00027295  00000+0  71534-3 0  9996
2 57201  97.5075 252.7958 0006541  35.4606 324.7073 15.38637160166906
SITRO-AIS 12 (SMIRENNIY)
1 57204U 23091AQ  26182.18352780  .00027747  00000+0  72032-3 0  9999
2 57204  97.5088 253.2594 0006029  30.1580 330.0011 15.38929090166929
SITRO-AIS 11 (SHEFFER)  
1 57208U 23091AU  26182.19304243  .00027629  00000+0  70721-3 0  9997
2 57208  97.5087 253.5246 0005921  29.5473 330.6106 15.39363165166941
SITRO-AIS 25            
1 59066U 24039R   26182.17770575  .00003030  00000+0  23818-3 0  9992
2 59066  95.3900 244.7066 0142365 279.2061  79.3085 14.93578234126817
SITRO-AIS 26            
1 59067U 24039S   26182.18099578  .00003008  00000+0  23760-3 0  9992
2 59067  95.3902 244.6036 0142687 279.8058  78.7081 14.93372443126807
SITRO-AIS 27            
1 59068U 24039T   26182.21429184  .00002372  00000+0  18637-3 0  9997
2 59068  95.3907 244.9051 0141770 278.2732  80.2439 14.93796107126832
SITRO-AIS 28            
1 59071U 24039U   26182.19142588  .00003168  00000+0  24780-3 0  9998
2 59071  95.3907 244.9371 0141569 278.1694  80.3495 14.93829231126831
GRBBETA                 
1 60237U 24128C   26182.09065766  .00004032  00000+0  27983-3 0  9993
2 60237  61.9881 167.4823 0038868 137.6715 222.7389 15.06724194108367
OOV-CUBE (TUBSAT-30)    
1 60240U 24128F   26182.09498632  .00002054  00000+0  16541-3 0  9999
2 60240  61.9925 177.0745 0042922 136.8688 223.5779 15.02824797108207
ROBUSTA-3A (MEDITERRAN*)
1 60243U 24128J   26182.09133286  .00007374  00000+0  43410-3 0  9998
2 60243  61.9848 159.0687 0039757 130.8339 229.6214 15.11812797108521
LASARSAT                
1 62391U 24247Q   26181.99069823  .00040170  00000+0  77566-3 0  9999
2 62391  44.9721 184.6005 0006647  59.4776 300.6769 15.47172682 85451
CROCUBE                 
1 62394U 24247T   26181.45534166  .00034641  00000+0  62612-3 0  9992
2 62394  44.9690 184.7243 0006588  61.2381 298.9172 15.49133067 85409
FORESAIL-1 PRIME        
1 66778U 25276DS  26182.09601455  .00005739  00000+0  27881-3 0  9997
2 66778  97.4200 255.1129 0003752  74.6480 285.5169 15.18825070 32513
KNACKSAT-2              
1 67683U 98067XZ  26181.35012679  .00038944  00000+0  45592-3 0  9996
2 67683  51.6260 228.2118 0008493 273.6004  86.4018 15.61112165 22338
