OBJECT_NAME,OBJECT_ID,EPOCH,MEAN_MOTION,ECCENTRICITY,INCLINATION,RA_OF_ASC_NODE,ARG_OF_PERICENTER,MEAN_ANOMALY,EPHEMERIS_TYPE,CLASSIFICATION_TYPE,NORAD_CAT_ID,ELEMENT_SET_NO,REV_AT_EPOCH,BSTAR,MEAN_MOTION_DOT,MEAN_MOTION_DDOT
SIRION PATHFINDER-2,2018-099B,2026-07-01T02:55:09.731424,15.14668888,.0007224,97.4243,230.8482,245.5732,114.4747,0,U,43759,999,41473,.27348E-3,.4997E-4,0
CORVUS BC4,2018-099K,2026-07-01T01:56:38.588352,15.12603535,.0006931,97.4054,224.6547,321.1884,38.8848,0,U,43767,999,41450,.29796E-3,.5142E-4,0
M2 PATHFINDER,2020-037E,2026-07-01T01:52:50.824128,15.04738191,.0012763,97.8142,13.4655,105.3996,254.8641,0,U,45727,999,32758,.25236E-3,.3498E-4,0
NETSAT-4,2020-068U,2026-06-30T23:50:08.128032,15.44320928,.0003299,97.8597,191.3470,259.8580,100.2295,0,U,46504,999,31790,.45016E-3,.20676E-3,0
NETSAT-3,2020-068V,2026-07-01T00:14:18.605184,15.43153659,.0002899,97.8648,189.5644,289.5565,70.5368,0,U,46505,999,31781,.48354E-3,.21359E-3,0
NETSAT-1,2020-068W,2026-06-30T22:58:25.281984,15.34952511,.0003272,97.8741,183.6749,343.6913,16.4223,0,U,46506,999,31741,.42281E-3,.14259E-3,0
NETSAT-2,2020-068X,2026-07-01T00:19:33.317184,15.46589949,.000153,97.8606,191.3154,321.4656,38.6483,0,U,46507,999,31787,.57595E-3,.28638E-3,0
GREENCUBE (IO-117),2022-080E,2026-06-30T17:23:31.202880,6.42583253,.00089588,70.1437,293.5372,286.6703,73.2973,0,U,53109,999,9293,0,-.3E-7,0
SITRO-AIS 5 (KATYS),2023-091L,2026-07-01T03:14:19.520160,15.29776351,.0012071,97.5055,246.1690,59.8090,300.4344,0,U,57176,999,16647,.57934E-3,.16686E-3,0
SITRO-AIS 6 (CHIRKIN),2023-091AC,2026-07-01T03:30:39.430080,15.26201305,.0012526,97.5062,245.2250,63.0388,297.2128,0,U,57192,999,16641,.52697E-3,.13599E-3,0
SITRO-AIS 8 (ANOKHIN),2023-091AD,2026-07-01T04:37:24.877056,15.32516475,.0010926,97.5051,247.8735,55.8591,304.3686,0,U,57193,999,16659,.63799E-3,.20018E-3,0
SITRO-AIS 7 (FARTUSHNIY),2023-091AE,2026-07-01T03:39:20.195712,15.25882468,.0012466,97.5059,245.0487,64.0574,296.1947,0,U,57194,999,16640,.47121E-3,.12034E-3,0
SITRO-AIS 10 (BURDAEV),2023-091AK,2026-07-01T03:57:07.125984,15.39135854,.0006293,97.5077,253.0452,35.5279,324.6384,0,U,57199,999,16691,.74851E-3,.29038E-3,0
SITRO-AIS 9 (SHCHUKIN),2023-091AM,2026-07-01T04:41:37.461408,15.38637160,.0006541,97.5075,252.7958,35.4606,324.7073,0,U,57201,999,16690,.71534E-3,.27295E-3,0
SITRO-AIS 12 (SMIRENNIY),2023-091AQ,2026-07-01T04:24:16.801920,15.38929090,.0006029,97.5088,253.2594,30.1580,330.0011,0,U,57204,999,16692,.72032E-3,.27747E-3,0
SITRO-AIS 11 (SHEFFER),2023-091AU,2026-07-01T04:37:58.865952,15.39363165,.0005921,97.5087,253.5246,29.5473,330.6106,0,U,57208,999,16694,.70721E-3,.27629E-3,0
SITRO-AIS 25,2024-039R,2026-07-01T04:15:53.776800,14.93578234,.0142365,95.3900,244.7066,279.2061,79.3085,0,U,59066,999,12681,.23818E-3,.303E-4,0
SITRO-AIS 26,2024-039S,2026-07-01T04:20:38.035392,14.93372443,.0142687,95.3902,244.6036,279.8058,78.7081,0,U,59067,999,12680,.2376E-3,.3008E-4,0
SITRO-AIS 27,2024-039T,2026-07-01T05:08:34.814976,14.93796107,.014177,95.3907,244.9051,278.2732,80.2439,0,U,59068,999,12683,.18637E-3,.2372E-4,0
SITRO-AIS 28,2024-039U,2026-07-01T04:35:39.196032,14.93829231,.0141569,95.3907,244.9371,278.1694,80.3495,0,U,59071,999,12683,.2478E-3,.3168E-4,0
GRBBETA,2024-128C,2026-07-01T02:10:32.821824,15.06724194,.0038868,61.9881,167.4823,137.6715,222.7389,0,U,60237,999,10836,.27983E-3,.4032E-4,0
OOV-CUBE (TUBSAT-30),2024-128F,2026-07-01T02:16:46.818048,15.02824797,.0042922,61.9925,177.0745,136.8688,223.5779,0,U,60240,999,10820,.16541E-3,.2054E-4,0
ROBUSTA-3A (MEDITERRANEE),2024-128J,2026-07-01T02:11:31.159104,15.11812797,.0039757,61.9848,159.0687,130.8339,229.6214,0,U,60243,999,10852,.4341E-3,.7374E-4,0
LASARSAT,2024-247Q,2026-06-30T23:46:36.327072,15.47172682,.0006647,44.9721,184.6005,59.4776,300.6769,0,U,62391,999,8545,.77566E-3,.4017E-3,0
CROCUBE,2024-247T,2026-06-30T10:55:41.519424,15.49133067,.00065888,44.9690,184.7243,61.2381,298.9172,0,U,62394,999,8540,.62612125E-3,.34641E-3,0
FORESAIL-1 PRIME,2025-276DS,2026-07-01T02:18:15.657120,15.18825070,.0003752,97.4200,255.1129,74.6480,285.5169,0,U,66778,999,3251,.27881E-3,.5739E-4,0
KNACKSAT-2,1998-067XZ,2026-06-30T08:24:10.954656,15.61112165,.00084933,51.6260,228.2118,273.6004,86.4018,0,U,67683,999,2233,.45592226E-3,.38944E-3,0
